"""Vendored 2022 historical Earth-resources TLE snapshot for aeossp_standard generation.

Prepared by a one-off root helper from the IAU CPS SatChecker tools API
(`get-nearest-tle`), selecting nearest historical TLEs for NORAD ids in
the 2026 AEOSSP Earth-resources cache. Rows are retained only when the
TLE epoch is within 7 days of 2022-04-14T00:00:00Z.

This module is runtime data, not a live data-fetching path.
"""

from __future__ import annotations

from typing import Any

# Sorted by norad_catalog_id for stable CSV output and checksums.
CACHED_CELESTRAK_ROWS: list[dict[str, Any]] = [
    {
        "name": 'SCD 1',
        "norad_catalog_id": '22490',
        "tle_line1": '1 22490U 93009B   22104.13575797  .00000395  00000-0  59046-4 0  9996',
        "tle_line2": '2 22490  24.9693 252.0960 0042759 216.5937 305.5476 14.44668346540641',
        "epoch_iso": '2022-04-14T03:15:29.488608Z',
        "inclination_deg": '24.969300',
        "eccentricity": '0.00427590',
        "mean_motion_rev_per_day": '14.44668346',
        "altitude_m": '743115.800',
    },
    {
        "name": 'TECHSAT 1B',
        "norad_catalog_id": '25397',
        "tle_line1": '1 25397U 98043D   22104.12562792  .00000050  00000-0  41659-4 0  9997',
        "tle_line2": '2 25397  98.8116  54.4458 0000596 353.5312   6.5859 14.23743342234491',
        "epoch_iso": '2022-04-14T03:00:54.252288Z',
        "inclination_deg": '98.811600',
        "eccentricity": '0.00005960',
        "mean_motion_rev_per_day": '14.23743342',
        "altitude_m": '812720.854',
    },
    {
        "name": 'SCD 2',
        "norad_catalog_id": '25504',
        "tle_line1": '1 25504U 98060A   22104.18134459  .00000356  00000-0  50036-4 0  9995',
        "tle_line2": '2 25504  24.9950 106.0792 0016986 225.3974 212.5245 14.44181165239903',
        "epoch_iso": '2022-04-14T04:21:08.172576Z',
        "inclination_deg": '24.995000',
        "eccentricity": '0.00169860',
        "mean_motion_rev_per_day": '14.44181165',
        "altitude_m": '744717.236',
    },
    {
        "name": 'TUBSAT',
        "norad_catalog_id": '25757',
        "tle_line1": '1 25757U 99029B   22103.81651729  .00000084  00000-0  32714-4 0  9995',
        "tle_line2": '2 25757  98.4829  45.7663 0013668 319.5378  40.4799 14.51483091212003',
        "epoch_iso": '2022-04-13T19:35:47.093856Z',
        "inclination_deg": '98.482900',
        "eccentricity": '0.00136680',
        "mean_motion_rev_per_day": '14.51483091',
        "altitude_m": '720808.697',
    },
    {
        "name": 'TERRA',
        "norad_catalog_id": '25994',
        "tle_line1": '1 25994U 99068A   22103.86386668  .00000315  00000-0  79737-4 0  9996',
        "tle_line2": '2 25994  98.1405 177.2534 0001312  98.2235 352.8974 14.57128597187095',
        "epoch_iso": '2022-04-13T20:43:58.081152Z',
        "inclination_deg": '98.140500',
        "eccentricity": '0.00013120',
        "mean_motion_rev_per_day": '14.57128597',
        "altitude_m": '702460.710',
    },
    {
        "name": 'MAROC TUBSAT',
        "norad_catalog_id": '27004',
        "tle_line1": '1 27004U 01056D   22103.85272707 -.00000024  00000-0  24373-4 0  9991',
        "tle_line2": '2 27004  99.6132 244.2716 0020661  98.8542  25.7962 13.70154784 17292',
        "epoch_iso": '2022-04-13T20:27:55.618848Z',
        "inclination_deg": '99.613200',
        "eccentricity": '0.00206610',
        "mean_motion_rev_per_day": '13.70154784',
        "altitude_m": '999015.372',
    },
    {
        "name": 'AQUA',
        "norad_catalog_id": '27424',
        "tle_line1": '1 27424U 02022A   22104.07872235  .00000576  00000-0  13770-3 0  9997',
        "tle_line2": '2 27424  98.2425  46.6025 0001956  79.1620 294.2265 14.57209789 60851',
        "epoch_iso": '2022-04-14T01:53:21.611040Z',
        "inclination_deg": '98.242500',
        "eccentricity": '0.00019560',
        "mean_motion_rev_per_day": '14.57209789',
        "altitude_m": '702197.699',
    },
    {
        "name": 'IRS P6',
        "norad_catalog_id": '28051',
        "tle_line1": '1 28051U 03046A   22104.06160087  .00000154  00000-0  68711-4 0  9993',
        "tle_line2": '2 28051  98.4087 176.7815 0057979 208.2430 151.5603 14.34222723961798',
        "epoch_iso": '2022-04-14T01:28:42.315168Z',
        "inclination_deg": '98.408700',
        "eccentricity": '0.00579790',
        "mean_motion_rev_per_day": '14.34222723',
        "altitude_m": '777650.613',
    },
    {
        "name": 'TANSUO 1',
        "norad_catalog_id": '28220',
        "tle_line1": '1 28220U 04012A   22104.56777085  .00002622  00000-0  20738-3 0  9990',
        "tle_line2": '2 28220  97.9795  94.9204 0014148 184.3137 175.7967 15.01488952980489',
        "epoch_iso": '2022-04-14T13:37:35.401440Z',
        "inclination_deg": '97.979500',
        "eccentricity": '0.00141480',
        "mean_motion_rev_per_day": '15.01488952',
        "altitude_m": '562304.223',
    },
    {
        "name": 'AURA',
        "norad_catalog_id": '28376',
        "tle_line1": '1 28376U 04026A   22103.80951021  .00000606  00000-0  14457-3 0  9998',
        "tle_line2": '2 28376  98.2041  48.0911 0001348  87.8638 272.2715 14.57105376943811',
        "epoch_iso": '2022-04-13T19:25:41.682144Z',
        "inclination_deg": '98.204100',
        "eccentricity": '0.00013480',
        "mean_motion_rev_per_day": '14.57105376',
        "altitude_m": '702535.936',
    },
    {
        "name": 'CARTOSAT-1',
        "norad_catalog_id": '28649',
        "tle_line1": '1 28649U 05017A   22103.76172791  .00000858  00000-0  10922-3 0  9998',
        "tle_line2": '2 28649  97.7254 166.2274 0002749  80.1960 279.9565 14.84020187917149',
        "epoch_iso": '2022-04-13T18:16:53.291424Z',
        "inclination_deg": '97.725400',
        "eccentricity": '0.00027490',
        "mean_motion_rev_per_day": '14.84020187',
        "altitude_m": '616663.014',
    },
    {
        "name": 'SINAH 1',
        "norad_catalog_id": '28893',
        "tle_line1": '1 28893U 05043D   22103.83909439  .00000253  00000-0  60171-4 0  9994',
        "tle_line2": '2 28893  98.1009 228.6921 0015502  20.2134 339.9678 14.61661270877511',
        "epoch_iso": '2022-04-13T20:08:17.755296Z',
        "inclination_deg": '98.100900',
        "eccentricity": '0.00155020',
        "mean_motion_rev_per_day": '14.61661270',
        "altitude_m": '687814.980',
    },
    {
        "name": 'RESURS DK-1',
        "norad_catalog_id": '29228',
        "tle_line1": '1 29228U 06021A   22103.86856711  .00001164  00000-0  93463-4 0  9993',
        "tle_line2": '2 29228  69.9347 293.5909 0004797 199.9981 160.0993 15.03056672872676',
        "epoch_iso": '2022-04-13T20:50:44.198304Z',
        "inclination_deg": '69.934700',
        "eccentricity": '0.00047970',
        "mean_motion_rev_per_day": '15.03056672',
        "altitude_m": '557477.366',
    },
    {
        "name": 'KOMPSAT 2',
        "norad_catalog_id": '29268',
        "tle_line1": '1 29268U 06031A   22103.90730025  .00000446  00000-0  97339-4 0  9990',
        "tle_line2": '2 29268  97.8988 335.7927 0015718 211.0167 149.0111 14.62243552838464',
        "epoch_iso": '2022-04-13T21:46:30.741600Z',
        "inclination_deg": '97.898800',
        "eccentricity": '0.00157180',
        "mean_motion_rev_per_day": '14.62243552',
        "altitude_m": '685939.027',
    },
    {
        "name": 'LAPAN-TUBSAT',
        "norad_catalog_id": '29709',
        "tle_line1": '1 29709U 07001A   22104.09670590  .00000576  00000-0  78494-4 0  9994',
        "tle_line2": '2 29709  97.9589  67.0559 0014196 103.5920 256.6871 14.82423721824978',
        "epoch_iso": '2022-04-14T02:19:15.389760Z',
        "inclination_deg": '97.958900',
        "eccentricity": '0.00141960',
        "mean_motion_rev_per_day": '14.82423721',
        "altitude_m": '621684.051',
    },
    {
        "name": 'HAIYANG 1B',
        "norad_catalog_id": '31113',
        "tle_line1": '1 31113U 07010A   22103.70293574  .00000067  00000-0  41707-4 0  9998',
        "tle_line2": '2 31113  98.3256 131.5964 0014684  48.5322 311.7120 14.30303412783251',
        "epoch_iso": '2022-04-13T16:52:13.647936Z',
        "inclination_deg": '98.325600',
        "eccentricity": '0.00146840',
        "mean_motion_rev_per_day": '14.30303412',
        "altitude_m": '790716.822',
    },
    {
        "name": 'SKYMED 1',
        "norad_catalog_id": '31598',
        "tle_line1": '1 31598U 07023A   22104.06425919 -.00000038  00000-0  18420-5 0  9995',
        "tle_line2": '2 31598  97.8878 288.6528 0001501  92.9414 267.2000 14.82147208803421',
        "epoch_iso": '2022-04-14T01:32:31.994016Z',
        "inclination_deg": '97.887800',
        "eccentricity": '0.00015010',
        "mean_motion_rev_per_day": '14.82147208',
        "altitude_m": '622554.626',
    },
    {
        "name": 'TERRA SAR X',
        "norad_catalog_id": '31698',
        "tle_line1": '1 31698U 07026A   22103.89753962 -.00000431  00000-0 -17322-4 0  9998',
        "tle_line2": '2 31698  97.4460 112.4078 0002260  87.7402   7.6689 15.19147103822325',
        "epoch_iso": '2022-04-13T21:32:27.423168Z',
        "inclination_deg": '97.446000',
        "eccentricity": '0.00022600',
        "mean_motion_rev_per_day": '15.19147103',
        "altitude_m": '508416.961',
    },
    {
        "name": 'WORLDVIEW 1',
        "norad_catalog_id": '32060',
        "tle_line1": '1 32060U 07041A   22103.88685172  .00005687  00000-0  23514-3 0  9990',
        "tle_line2": '2 32060  97.3842 224.1913 0003653 353.4748   6.6441 15.24360461810551',
        "epoch_iso": '2022-04-13T21:17:03.988608Z',
        "inclination_deg": '97.384200',
        "eccentricity": '0.00036530',
        "mean_motion_rev_per_day": '15.24360461',
        "altitude_m": '492706.518',
    },
    {
        "name": 'YAOGAN-3',
        "norad_catalog_id": '32289',
        "tle_line1": '1 32289U 07055A   22103.95825108  .00000617  00000-0  85960-4 0  9993',
